QUETZAL-1               
1 45598U 98067RL  20351.85344592  .00012532  00000-0  19895-3 0  9990
2 45598  51.6393 161.1586 0002070  55.3885 304.7300 15.53747552 36113
RED-EYE 2 (MERLOT)      
1 45800U 98067RM  20352.48850702  .00003754  00000-0  70743-4 0  9997
2 45800  51.6406 160.1405 0000893  17.7426 342.3595 15.51196380 28421
RED-EYE 3 (CABERNET)    
1 45809U 98067RN  20352.48902571  .00003791  00000-0  71376-4 0  9992
2 45809  51.6407 160.1441 0000938 353.9460   6.1518 15.51193480 27409
DEMI                    
1 45916U 98067RP  20351.69550889  .00008903  00000-0  14716-3 0  9998
2 45916  51.6401 163.1018 0002069 246.0408 114.0366 15.53043770 24287
TECHEDSAT 10            
1 45917U 98067RQ  20351.90518009  .00082028  00000-0  85360-3 0  9994
2 45917  51.6359 157.7424 0005580 263.4003  96.6357 15.63845848 24322
PROGRESS-MS 15          
1 45937U 20050A   20351.39322233  .00001212  00000-0  29947-4 0  9994
2 45937  51.6443 166.9105 0001609 128.8463 306.3210 15.49191655260266
CYGNUS NG-14            
1 46530U 20069A   20351.52757777  .00001021  00000-0  26507-4 0  9991
2 46530  51.6440 166.2455 0001588 130.1020 334.8686 15.49191047260285
SOYUZ-MS 17             
1 46613U 20072A   20351.52757777  .00001021  00000-0  26507-4 0  9997
2 46613  51.6440 166.2455 0001588 130.1020 334.8686 15.49191047260287
CREW DRAGON 1           
1 46920U 20084A   20351.52757777  .00001021  00000-0  26507-4 0  9991
2 46920  51.6440 166.2455 0001588 130.1020 334.8686 15.49191047260288
SPOC                    
1 46921U 98067RR  20351.85893973  .00007326  00000-0  13164-3 0  9991
2 46921  51.6412 164.1874 0002755 121.4052 238.7207 15.50981112  6499
BOBCAT-1                
1 46922U 98067RS  20351.79161730  .00009492  00000-0  16665-3 0  9999
2 46922  51.6413 164.4884 0002474 128.3168 231.8045 15.51248857  6449
NEUTRON-1               
1 46923U 98067RT  20351.86124561  .00007336  00000-0  13225-3 0  9993
2 46923  51.6411 164.2023 0002667 133.0819 227.0394 15.50885822  6522
1998-067RU              
1 46924U 98067RU  20351.78804334  .00016392  00000-0  27766-3 0  9995
2 46924  51.6408 164.4650 0002735 167.6532 192.4525 15.51677894  6483
LEMUR-2-BAXTER-OLIVER   
1 46925U 98067RV  20352.49355831  .00014089  00000-0  23851-3 0  9990
2 46925  51.6414 160.9268 0002535 173.2145 186.8880 15.51829497  6544
LEMUR-2-DJARA           
1 46926U 98067RW  20351.91638091  .00019176  00000-0  32292-3 0  9990
2 46926  51.6412 163.8216 0001983 152.9309 207.1785 15.51720904  6487
DESCENT                 
1 46927U 98067RX  20351.86294459  .00007649  00000-0  13779-3 0  9992
2 46927  51.6410 164.2132 0002750 151.8873 208.2265 15.50838767  6420
DRAGON CRS-21           
1 47233U 20093A   20351.52757777  .00001021  00000-0  26507-4 0  9999
2 47233  51.6440 166.2455 0001588 130.1020 334.8686 15.49191047260286
